428P/Gibbs,e,8.5151,299.3357,36.8157,3.484272,0.1515431,0.51953392,32.3291,12/14.0/2021,2000,g 15.0,4.0
# From MPEC 2021-WD8
429P/LINEAR-Hill,e,7.5220,322.0738,75.5327,3.551071,0.1472872,0.49135801,357.1821,12/14.0/2021,2000,g 15.5,4.0
# From MPEC 2021-W31
430P/Scotti,e,4.4748,54.6732,94.5012,3.106956,0.1799705,0.49963682,2.1195,12/14.0/2021,2000,g 16.5,4.0
# From MPEC 2021-WD8
431P/Scotti,e,22.3911,202.8460,199.8518,3.473238,0.1522658,0.47781265,350.6578,12/14.0/2021,2000,g 14.0,4.0
# From MPEC 2021-U31
432P/PANSTARRS,e,10.0680,239.1469,105.2646,3.036448,0.1862753,0.24224162,19.6585,12/14.0/2021,2000,g 17.0,4.0
# From MPEC 2021-WD8
434P/Tenagra,e,6.3399,288.9666,128.0387,4.127397,0.1175411,0.27425174,5.7893,12/14.0/2021,2000,g 13.0,4.0
# From MPEC 2021-W31
435P/PANSTARRS,e,18.8823,98.5510,244.1563,3.018782,0.1879129,0.31881846,26.2155,12/14.0/2021,2000,g 17.0,4.0
# From MPEC 2021-W31
436P/Garradd,e,20.2097,87.1926,282.5938,5.932021,0.0682182,0.66999277,0.3749,12/14.0/2021,2000,g 14.5,4.0
# From MPC107687
1I/`Oumuamua,h,09/09.4886/2017,122.6778,24.5997,241.6845,1.199252,0.255240,2000,23.0,2.0
# From MPEC 2020-K19
2I/Borisov,h,12/08.5549/2019,44.0527,308.1480,209.1251,3.356636,2.006548,2000,11.0,4.0
